{
  "type": "FeatureCollection",
  "features": [
    {
      "type": "Feature",
      "properties": {
        "norad_id": 30368,
        "name": "FENGYUN 1C DEB",
        "group": "fengyun-1c-debris",
        "lat": -66.07452406065724,
        "lon": 112.66246171764487,
        "alt_km": 858.3299960505901,
        "timestamp": "2025-12-11T07:02:24.006213+00:00",
        "meta_object_name": "FENGYUN 1C DEB",
        "meta_object_id": "1999-025ACF",
        "meta_epoch": "2025-12-09T13:32:10.444992",
        "meta_mean_motion": 13.75360815,
        "meta_eccentricity": 0.0186063,
        "meta_inclination": 99.1884,
        "meta_ra_of_asc_node": 89.5997,
        "meta_arg_of_pericenter": 316.4575,
        "meta_mean_anomaly": 58.6375,
        "meta_ephemeris_type": 0,
        "meta_classification_type": "U",
        "meta_norad_cat_id": 30368,
        "meta_element_set_no": 999,
        "meta_rev_at_epoch": 94618,
        "meta_bstar": 0.0006662,
        "meta_mean_motion_dot": 6.82e-06,
        "meta_mean_motion_ddot": 0,
        "tle_line1": "1 30368U 99025ACF 25343.56400978  .00000682  00000+0  66620-3 0  9999",
        "tle_line2": "2 30368  99.1884  89.5997 0186063 316.4575  58.6375 13.75360815946184"
      },
      "geometry": {
        "type": "Point",
        "coordinates": [
          112.66246171764487,
          -66.07452406065724
        ]
      }
    },
    {
      "type": "Feature",
      "properties": {
        "norad_id": 30369,
        "name": "FENGYUN 1C DEB",
        "group": "fengyun-1c-debris",
        "lat": -20.617369564372478,
        "lon": -14.00166622525411,
        "alt_km": 911.8095118467927,
        "timestamp": "2025-12-11T07:02:24.006224+00:00",
        "meta_object_name": "FENGYUN 1C DEB",
        "meta_object_id": "1999-025ACG",
        "meta_epoch": "2025-12-10T22:46:34.781088",
        "meta_mean_motion": 14.12055314,
        "meta_eccentricity": 0.00991229,
        "meta_inclination": 98.7212,
        "meta_ra_of_asc_node": 342.3528,
        "meta_arg_of_pericenter": 200.6049,
        "meta_mean_anomaly": 188.5618,
        "meta_ephemeris_type": 0,
        "meta_classification_type": "U",
        "meta_norad_cat_id": 30369,
        "meta_element_set_no": 999,
        "meta_rev_at_epoch": 97221,
        "meta_bstar": 0.00028808987,
        "meta_mean_motion_dot": 5.1e-06,
        "meta_mean_motion_ddot": 0,
        "tle_line1": "1 30369U 99025ACG 25344.94901367  .00000510  00000+0  28809-3 0  9998",
        "tle_line2": "2 30369  98.7212 342.3528 0099122 200.6049 188.5618 14.12055314972217"
      },
      "geometry": {
        "type": "Point",
        "coordinates": [
          -14.00166622525411,
          -20.617369564372478
        ]
      }
    },
    {
      "type": "Feature",
      "properties": {
        "norad_id": 30370,
        "name": "FENGYUN 1C DEB",
        "group": "fengyun-1c-debris",
        "lat": -44.564480898428904,
        "lon": -147.8277141634918,
        "alt_km": 842.1039144505366,
        "timestamp": "2025-12-11T07:02:24.006235+00:00",
        "meta_object_name": "FENGYUN 1C DEB",
        "meta_object_id": "1999-025ACH",
        "meta_epoch": "2025-12-10T15:28:15.803040",
        "meta_mean_motion": 14.19134097,
        "meta_eccentricity": 0.0099233,
        "meta_inclination": 99.0562,
        "meta_ra_of_asc_node": 40.5473,
        "meta_arg_of_pericenter": 323.3716,
        "meta_mean_anomaly": 190.631,
        "meta_ephemeris_type": 0,
        "meta_classification_type": "U",
        "meta_norad_cat_id": 30370,
        "meta_element_set_no": 999,
        "meta_rev_at_epoch": 97064,
        "meta_bstar": 0.0017398,
        "meta_mean_motion_dot": 3.777e-05,
        "meta_mean_motion_ddot": 0,
        "tle_line1": "1 30370U 99025ACH 25344.64462735  .00003777  00000+0  17398-2 0  9996",
        "tle_line2": "2 30370  99.0562  40.5473 0099233 323.3716 190.6310 14.19134097970645"
      },
      "geometry": {
        "type": "Point",
        "coordinates": [
          -147.8277141634918,
          -44.564480898428904
        ]
      }
    },
    {
      "type": "Feature",
      "properties": {
        "norad_id": 30371,
        "name": "FENGYUN 1C DEB",
        "group": "fengyun-1c-debris",
        "lat": -6.103512864522705,
        "lon": -152.60826419467216,
        "alt_km": 799.2364137650948,
        "timestamp": "2025-12-11T07:02:24.006246+00:00",
        "meta_object_name": "FENGYUN 1C DEB",
        "meta_object_id": "1999-025ACJ",
        "meta_epoch": "2025-12-10T14:06:07.007904",
        "meta_mean_motion": 14.30214076,
        "meta_eccentricity": 0.0006969,
        "meta_inclination": 98.5762,
        "meta_ra_of_asc_node": 27.6209,
        "meta_arg_of_pericenter": 343.6256,
        "meta_mean_anomaly": 170.7728,
        "meta_ephemeris_type": 0,
        "meta_classification_type": "U",
        "meta_norad_cat_id": 30371,
        "meta_element_set_no": 999,
        "meta_rev_at_epoch": 97872,
        "meta_bstar": 0.001575,
        "meta_mean_motion_dot": 4.039e-05,
        "meta_mean_motion_ddot": 0,
        "tle_line1": "1 30371U 99025ACJ 25344.58758111  .00004039  00000+0  15750-2 0  9998",
        "tle_line2": "2 30371  98.5762  27.6209 0006969 343.6256 170.7728 14.30214076978721"
      },
      "geometry": {
        "type": "Point",
        "coordinates": [
          -152.60826419467216,
          -6.103512864522705
        ]
      }
    },
    {
      "type": "Feature",
      "properties": {
        "norad_id": 30374,
        "name": "FENGYUN 1C DEB",
        "group": "fengyun-1c-debris",
        "lat": 68.03021117933088,
        "lon": 52.545202413019716,
        "alt_km": 669.671428370385,
        "timestamp": "2025-12-11T07:02:24.006256+00:00",
        "meta_object_name": "FENGYUN 1C DEB",
        "meta_object_id": "1999-025ACM",
        "meta_epoch": "2025-12-10T21:16:07.669632",
        "meta_mean_motion": 14.61229521,
        "meta_eccentricity": 0.00392711,
        "meta_inclination": 99.2725,
        "meta_ra_of_asc_node": 208.2,
        "meta_arg_of_pericenter": 173.843,
        "meta_mean_anomaly": 316.0507,
        "meta_ephemeris_type": 0,
        "meta_classification_type": "U",
        "meta_norad_cat_id": 30374,
        "meta_element_set_no": 999,
        "meta_rev_at_epoch": 98895,
        "meta_bstar": 0.0025703584,
        "meta_mean_motion_dot": 0.00012773,
        "meta_mean_motion_ddot": 0,
        "tle_line1": "1 30374U 99025ACM 25344.88619988  .00012773  00000+0  25704-2 0  9996",
        "tle_line2": "2 30374  99.2725 208.2000 0039271 173.8430 316.0507 14.61229521988957"
      },
      "geometry": {
        "type": "Point",
        "coordinates": [
          52.545202413019716,
          68.03021117933088
        ]
      }
    },
    {
      "type": "Feature",
      "properties": {
        "norad_id": 30377,
        "name": "FENGYUN 1C DEB",
        "group": "fengyun-1c-debris",
        "lat": -49.77962658520404,
        "lon": 174.15771845083202,
        "alt_km": 837.3933080747793,
        "timestamp": "2025-12-11T07:02:24.006271+00:00",
        "meta_object_name": "FENGYUN 1C DEB",
        "meta_object_id": "1999-025ACQ",
        "meta_epoch": "2025-12-10T21:55:44.181984",
        "meta_mean_motion": 13.99168336,
        "meta_eccentricity": 0.01181557,
        "meta_inclination": 98.8937,
        "meta_ra_of_asc_node": 4.4593,
        "meta_arg_of_pericenter": 271.7507,
        "meta_mean_anomaly": 208.5132,
        "meta_ephemeris_type": 0,
        "meta_classification_type": "U",
        "meta_norad_cat_id": 30377,
        "meta_element_set_no": 999,
        "meta_rev_at_epoch": 96181,
        "meta_bstar": 0.00044706799,
        "meta_mean_motion_dot": 6.44e-06,
        "meta_mean_motion_ddot": 0,
        "tle_line1": "1 30377U 99025ACQ 25344.91370581  .00000644  00000+0  44707-3 0  9995",
        "tle_line2": "2 30377  98.8937   4.4593 0118155 271.7507 208.5132 13.99168336961816"
      },
      "geometry": {
        "type": "Point",
        "coordinates": [
          174.15771845083202,
          -49.77962658520404
        ]
      }
    },
    {
      "type": "Feature",
      "properties": {
        "norad_id": 30379,
        "name": "FENGYUN 1C DEB",
        "group": "fengyun-1c-debris",
        "lat": -55.671461222326386,
        "lon": 13.124800367260915,
        "alt_km": 848.9322253935197,
        "timestamp": "2025-12-11T07:02:24.006282+00:00",
        "meta_object_name": "FENGYUN 1C DEB",
        "meta_object_id": "1999-025ACS",
        "meta_epoch": "2025-12-10T20:13:10.818048",
        "meta_mean_motion": 14.08031851,
        "meta_eccentricity": 0.00355016,
        "meta_inclination": 98.7583,
        "meta_ra_of_asc_node": 359.6405,
        "meta_arg_of_pericenter": 284.7017,
        "meta_mean_anomaly": 254.5196,
        "meta_ephemeris_type": 0,
        "meta_classification_type": "U",
        "meta_norad_cat_id": 30379,
        "meta_element_set_no": 999,
        "meta_rev_at_epoch": 96790,
        "meta_bstar": 0.00039650369,
        "meta_mean_motion_dot": 6.35e-06,
        "meta_mean_motion_ddot": 0,
        "tle_line1": "1 30379U 99025ACS 25344.84248632  .00000635  00000+0  39650-3 0  9991",
        "tle_line2": "2 30379  98.7583 359.6405 0035501 284.7017 254.5196 14.08031851967903"
      },
      "geometry": {
        "type": "Point",
        "coordinates": [
          13.124800367260915,
          -55.671461222326386
        ]
      }
    }
  ]
}